{
  "type": "FeatureCollection",
  "features": [
    {
      "type": "Feature",
      "properties": {
        "norad_id": 37694,
        "name": "FENGYUN 1C DEB",
        "group": "fengyun-1c-debris",
        "lat": -9.132786609710507,
        "lon": -124.01891606896629,
        "alt_km": 866.5037298429124,
        "timestamp": "2025-12-15T22:44:29.217658+00:00",
        "meta_object_name": "FENGYUN 1C DEB",
        "meta_object_id": "1999-025ELK",
        "meta_epoch": "2025-12-14T10:20:27.757248",
        "meta_mean_motion": 14.16668534,
        "meta_eccentricity": 0.01472645,
        "meta_inclination": 98.1988,
        "meta_ra_of_asc_node": 55.9107,
        "meta_arg_of_pericenter": 88.6122,
        "meta_mean_anomaly": 288.1431,
        "meta_ephemeris_type": 0,
        "meta_classification_type": "U",
        "meta_norad_cat_id": 37694,
        "meta_element_set_no": 999,
        "meta_rev_at_epoch": 51728,
        "meta_bstar": 0.0018272074,
        "meta_mean_motion_dot": 4.021e-05,
        "meta_mean_motion_ddot": 0,
        "tle_line1": "1 37694U 99025ELK 25348.43087682  .00004021  00000+0  18272-2 0  9992",
        "tle_line2": "2 37694  98.1988  55.9107 0147264  88.6122 288.1431 14.16668534517286"
      },
      "geometry": {
        "type": "Point",
        "coordinates": [
          -124.01891606896629,
          -9.132786609710507
        ]
      }
    },
    {
      "type": "Feature",
      "properties": {
        "norad_id": 37695,
        "name": "FENGYUN 1C DEB",
        "group": "fengyun-1c-debris",
        "lat": -27.984449135904832,
        "lon": -151.61505622495585,
        "alt_km": 768.3588173559965,
        "timestamp": "2025-12-15T22:44:29.217668+00:00",
        "meta_object_name": "FENGYUN 1C DEB",
        "meta_object_id": "1999-025ELL",
        "meta_epoch": "2025-12-14T21:58:38.080128",
        "meta_mean_motion": 13.64992278,
        "meta_eccentricity": 0.04655182,
        "meta_inclination": 98.211,
        "meta_ra_of_asc_node": 31.9079,
        "meta_arg_of_pericenter": 255.0095,
        "meta_mean_anomaly": 289.1133,
        "meta_ephemeris_type": 0,
        "meta_classification_type": "U",
        "meta_norad_cat_id": 37695,
        "meta_element_set_no": 999,
        "meta_rev_at_epoch": 89281,
        "meta_bstar": 0.00096439728,
        "meta_mean_motion_dot": 1.602e-05,
        "meta_mean_motion_ddot": 0,
        "tle_line1": "1 37695U 99025ELL 25348.91571852  .00001602  00000+0  96440-3 0  9999",
        "tle_line2": "2 37695  98.2110  31.9079 0465518 255.0095 289.1133 13.64992278892813"
      },
      "geometry": {
        "type": "Point",
        "coordinates": [
          -151.61505622495585,
          -27.984449135904832
        ]
      }
    },
    {
      "type": "Feature",
      "properties": {
        "norad_id": 37704,
        "name": "FENGYUN 1C DEB",
        "group": "fengyun-1c-debris",
        "lat": -64.78801595019736,
        "lon": -15.44272029344804,
        "alt_km": 957.2251802737583,
        "timestamp": "2025-12-15T22:44:29.217679+00:00",
        "meta_object_name": "FENGYUN 1C DEB",
        "meta_object_id": "1999-025ELV",
        "meta_epoch": "2025-12-10T18:58:47.253216",
        "meta_mean_motion": 13.70500661,
        "meta_eccentricity": 0.02401356,
        "meta_inclination": 98.3199,
        "meta_ra_of_asc_node": 178.1952,
        "meta_arg_of_pericenter": 184.1814,
        "meta_mean_anomaly": 190.5574,
        "meta_ephemeris_type": 0,
        "meta_classification_type": "U",
        "meta_norad_cat_id": 37704,
        "meta_element_set_no": 999,
        "meta_rev_at_epoch": 62338,
        "meta_bstar": 0.0019314833,
        "meta_mean_motion_dot": 2.062e-05,
        "meta_mean_motion_ddot": 0,
        "tle_line1": "1 37704U 99025ELV 25344.79082469  .00002062  00000+0  19315-2 0  9999",
        "tle_line2": "2 37704  98.3199 178.1952 0240135 184.1814 190.5574 13.70500661623389"
      },
      "geometry": {
        "type": "Point",
        "coordinates": [
          -15.44272029344804,
          -64.78801595019736
        ]
      }
    },
    {
      "type": "Feature",
      "properties": {
        "norad_id": 37707,
        "name": "FENGYUN 1C DEB",
        "group": "fengyun-1c-debris",
        "lat": -72.79858751393996,
        "lon": 139.01105815547913,
        "alt_km": 762.357616126048,
        "timestamp": "2025-12-15T22:44:29.217689+00:00",
        "meta_object_name": "FENGYUN 1C DEB",
        "meta_object_id": "1999-025ELY",
        "meta_epoch": "2025-12-15T06:46:23.892672",
        "meta_mean_motion": 14.56465053,
        "meta_eccentricity": 0.01435135,
        "meta_inclination": 100.2205,
        "meta_ra_of_asc_node": 353.8432,
        "meta_arg_of_pericenter": 18.5136,
        "meta_mean_anomaly": 352.3488,
        "meta_ephemeris_type": 0,
        "meta_classification_type": "U",
        "meta_norad_cat_id": 37707,
        "meta_element_set_no": 999,
        "meta_rev_at_epoch": 85603,
        "meta_bstar": 0.00056419529,
        "meta_mean_motion_dot": 2.81e-05,
        "meta_mean_motion_ddot": 0,
        "tle_line1": "1 37707U 99025ELY 25349.28222098  .00002810  00000+0  56420-3 0  9995",
        "tle_line2": "2 37707 100.2205 353.8432 0143513  18.5136 352.3488 14.56465053856039"
      },
      "geometry": {
        "type": "Point",
        "coordinates": [
          139.01105815547913,
          -72.79858751393996
        ]
      }
    },
    {
      "type": "Feature",
      "properties": {
        "norad_id": 37712,
        "name": "FENGYUN 1C DEB",
        "group": "fengyun-1c-debris",
        "lat": -53.509293768826375,
        "lon": -63.07554442854806,
        "alt_km": 795.9754013289148,
        "timestamp": "2025-12-15T22:44:29.217699+00:00",
        "meta_object_name": "FENGYUN 1C DEB",
        "meta_object_id": "1999-025EMD",
        "meta_epoch": "2025-12-14T15:36:31.768416",
        "meta_mean_motion": 14.36434035,
        "meta_eccentricity": 0.0079125,
        "meta_inclination": 98.8182,
        "meta_ra_of_asc_node": 127.7109,
        "meta_arg_of_pericenter": 347.949,
        "meta_mean_anomaly": 23.1022,
        "meta_ephemeris_type": 0,
        "meta_classification_type": "U",
        "meta_norad_cat_id": 37712,
        "meta_element_set_no": 999,
        "meta_rev_at_epoch": 63988,
        "meta_bstar": 0.00047842497,
        "meta_mean_motion_dot": 1.406e-05,
        "meta_mean_motion_ddot": 0,
        "tle_line1": "1 37712U 99025EMD 25348.65036769  .00001406  00000+0  47842-3 0  9997",
        "tle_line2": "2 37712  98.8182 127.7109 0079125 347.9490  23.1022 14.36434035639882"
      },
      "geometry": {
        "type": "Point",
        "coordinates": [
          -63.07554442854806,
          -53.509293768826375
        ]
      }
    },
    {
      "type": "Feature",
      "properties": {
        "norad_id": 37714,
        "name": "FENGYUN 1C DEB",
        "group": "fengyun-1c-debris",
        "lat": 79.32011933852223,
        "lon": 45.60553193767982,
        "alt_km": 742.3476861134823,
        "timestamp": "2025-12-15T22:44:29.217709+00:00",
        "meta_object_name": "FENGYUN 1C DEB",
        "meta_object_id": "1999-025EMF",
        "meta_epoch": "2025-12-09T13:46:38.631072",
        "meta_mean_motion": 14.32176518,
        "meta_eccentricity": 0.0048599,
        "meta_inclination": 98.8929,
        "meta_ra_of_asc_node": 95.1946,
        "meta_arg_of_pericenter": 93.8012,
        "meta_mean_anomaly": 266.8729,
        "meta_ephemeris_type": 0,
        "meta_classification_type": "U",
        "meta_norad_cat_id": 37714,
        "meta_element_set_no": 999,
        "meta_rev_at_epoch": 57464,
        "meta_bstar": 0.0030577,
        "meta_mean_motion_dot": 8.305e-05,
        "meta_mean_motion_ddot": 0,
        "tle_line1": "1 37714U 99025EMF 25343.57405823  .00008305  00000+0  30577-2 0  9997",
        "tle_line2": "2 37714  98.8929  95.1946 0048599  93.8012 266.8729 14.32176518574645"
      },
      "geometry": {
        "type": "Point",
        "coordinates": [
          45.60553193767982,
          79.32011933852223
        ]
      }
    },
    {
      "type": "Feature",
      "properties": {
        "norad_id": 37715,
        "name": "FENGYUN 1C DEB",
        "group": "fengyun-1c-debris",
        "lat": -3.9534384009036554,
        "lon": 176.99640912939822,
        "alt_km": 898.4665162725341,
        "timestamp": "2025-12-15T22:44:29.217723+00:00",
        "meta_object_name": "FENGYUN 1C DEB",
        "meta_object_id": "1999-025EMG",
        "meta_epoch": "2025-12-15T06:27:56.928096",
        "meta_mean_motion": 13.95417979,
        "meta_eccentricity": 0.01145236,
        "meta_inclination": 98.9566,
        "meta_ra_of_asc_node": 356.962,
        "meta_arg_of_pericenter": 105.1796,
        "meta_mean_anomaly": 272.5768,
        "meta_ephemeris_type": 0,
        "meta_classification_type": "U",
        "meta_norad_cat_id": 37715,
        "meta_element_set_no": 999,
        "meta_rev_at_epoch": 57839,
        "meta_bstar": 0.0004862891,
        "meta_mean_motion_dot": 6.55e-06,
        "meta_mean_motion_ddot": 0,
        "tle_line1": "1 37715U 99025EMG 25349.26940889  .00000655  00000+0  48629-3 0  9994",
        "tle_line2": "2 37715  98.9566 356.9620 0114523 105.1796 272.5768 13.95417979578398"
      },
      "geometry": {
        "type": "Point",
        "coordinates": [
          176.99640912939822,
          -3.9534384009036554
        ]
      }
    }
  ]
}